format  = 'OEF1.1'       ! file format
rectype = 'ML'           ! record type (1L/ML)
refsys  = ECLM J2000     ! default reference system
END_OF_HEADER
1979XB
! Equinoctial elements: a, e*sin(LP), e*cos(LP), tan(i/2)*sin(LN), tan(i/2)*cos(LN), mean long.
 EQU   1.79683315456734E+00   0.186027576775108  -0.600994175894879    0.198576186154405    0.013121834982126 143.1647149256713
 MJD     44221.662473611 TDT
 MAG  18.787  0.150
! RMS    1.24420E-01   1.33879E-02   2.66595E-02   7.69884E-03   7.23667E-04   1.99585E+00
! EIG   2.72694E-08   4.21428E-08   1.96866E-07   3.43984E-06   7.74882E-05   1.32828E-01
! WEA   0.93669   0.10079  -0.20071   0.05796   0.00545   0.26225
 COV   1.548023108515341E-02  1.665708320387206E-03 -3.316963931022464E-03
 COV   9.578860809587988E-04  9.003828109148092E-05  2.483217875743580E-01
 COV   1.792353213184361E-04 -3.569118392531207E-04  1.030705584584679E-04
 COV   9.688338295565876E-06  2.671986006689315E-02  7.107299344737933E-04
 COV  -2.052473157995849E-04 -1.929257781215436E-05 -5.320825806159751E-02
 COV   5.927213218507662E-05  5.571390728718374E-06  1.536567937363056E-02
 COV   5.236936539992888E-07  1.444322505182924E-03  3.983398054630926E+00
 NOR   3.918264623117634E+13 -1.377825615081178E+14  3.498462741686279E+13
 NOR  -4.041594942486453E+12  2.820175432162962E+13 -1.045723632526373E+12
 NOR   5.523868032984836E+14  8.810963968072623E+13  3.635631488623887E+13
 NOR  -2.269800890402802E+14  6.002931912482043E+12  6.878975509828976E+14
 NOR   6.523692946065127E+13 -3.718846261325150E+14  6.299852337457302E+12
 NOR   8.454835014292950E+12 -4.935246288168051E+13  8.647617822640338E+11
 NOR   2.919659181752903E+14 -5.118475615781619E+12  1.075934921222564E+11
